<?xml version="1.0" encoding="UTF-8"?>
<kml xmlns="http://www.opengis.net/kml/2.2">
  <Document>
    <name>Quantum Residences</name>
    <description><![CDATA[Strategically Located Near The Inersection Of Taft & Buendia With A Full Set Of Amenities. Live Conveniently With Access To Top Establishments And Amenities at Quantum Residences.]]></description>
    <Style id="icon-1502-C2185B-nodesc-normal">
      <IconStyle>
        <color>ff5b18c2</color>
        <scale>1</scale>
        <Icon>
          <href>https://www.gstatic.com/mapspro/images/stock/503-wht-blank_maps.png</href>
        </Icon>
      </IconStyle>
      <LabelStyle>
        <scale>0</scale>
      </LabelStyle>
      <BalloonStyle>
        <text><![CDATA[<h3>$[name]</h3>]]></text>
      </BalloonStyle>
    </Style>
    <Style id="icon-1502-C2185B-nodesc-highlight">
      <IconStyle>
        <color>ff5b18c2</color>
        <scale>1</scale>
        <Icon>
          <href>https://www.gstatic.com/mapspro/images/stock/503-wht-blank_maps.png</href>
        </Icon>
      </IconStyle>
      <LabelStyle>
        <scale>1</scale>
      </LabelStyle>
      <BalloonStyle>
        <text><![CDATA[<h3>$[name]</h3>]]></text>
      </BalloonStyle>
    </Style>
    <StyleMap id="icon-1502-C2185B-nodesc">
      <Pair>
        <key>normal</key>
        <styleUrl>#icon-1502-C2185B-nodesc-normal</styleUrl>
      </Pair>
      <Pair>
        <key>highlight</key>
        <styleUrl>#icon-1502-C2185B-nodesc-highlight</styleUrl>
      </Pair>
    </StyleMap>
    <Style id="icon-1899-01579B-nodesc-normal">
      <IconStyle>
        <color>ff9b5701</color>
        <scale>1</scale>
        <Icon>
          <href>https://www.gstatic.com/mapspro/images/stock/503-wht-blank_maps.png</href>
        </Icon>
        <hotSpot x="32" xunits="pixels" y="64" yunits="insetPixels"/>
      </IconStyle>
      <LabelStyle>
        <scale>0</scale>
      </LabelStyle>
      <BalloonStyle>
        <text><![CDATA[<h3>$[name]</h3>]]></text>
      </BalloonStyle>
    </Style>
    <Style id="icon-1899-01579B-nodesc-highlight">
      <IconStyle>
        <color>ff9b5701</color>
        <scale>1</scale>
        <Icon>
          <href>https://www.gstatic.com/mapspro/images/stock/503-wht-blank_maps.png</href>
        </Icon>
        <hotSpot x="32" xunits="pixels" y="64" yunits="insetPixels"/>
      </IconStyle>
      <LabelStyle>
        <scale>1</scale>
      </LabelStyle>
      <BalloonStyle>
        <text><![CDATA[<h3>$[name]</h3>]]></text>
      </BalloonStyle>
    </Style>
    <StyleMap id="icon-1899-01579B-nodesc">
      <Pair>
        <key>normal</key>
        <styleUrl>#icon-1899-01579B-nodesc-normal</styleUrl>
      </Pair>
      <Pair>
        <key>highlight</key>
        <styleUrl>#icon-1899-01579B-nodesc-highlight</styleUrl>
      </Pair>
    </StyleMap>
    <Style id="icon-1899-0288D1-nodesc-normal">
      <IconStyle>
        <color>ffd18802</color>
        <scale>1</scale>
        <Icon>
          <href>https://www.gstatic.com/mapspro/images/stock/503-wht-blank_maps.png</href>
        </Icon>
        <hotSpot x="32" xunits="pixels" y="64" yunits="insetPixels"/>
      </IconStyle>
      <LabelStyle>
        <scale>0</scale>
      </LabelStyle>
      <BalloonStyle>
        <text><![CDATA[<h3>$[name]</h3>]]></text>
      </BalloonStyle>
    </Style>
    <Style id="icon-1899-0288D1-nodesc-highlight">
      <IconStyle>
        <color>ffd18802</color>
        <scale>1</scale>
        <Icon>
          <href>https://www.gstatic.com/mapspro/images/stock/503-wht-blank_maps.png</href>
        </Icon>
        <hotSpot x="32" xunits="pixels" y="64" yunits="insetPixels"/>
      </IconStyle>
      <LabelStyle>
        <scale>1</scale>
      </LabelStyle>
      <BalloonStyle>
        <text><![CDATA[<h3>$[name]</h3>]]></text>
      </BalloonStyle>
    </Style>
    <StyleMap id="icon-1899-0288D1-nodesc">
      <Pair>
        <key>normal</key>
        <styleUrl>#icon-1899-0288D1-nodesc-normal</styleUrl>
      </Pair>
      <Pair>
        <key>highlight</key>
        <styleUrl>#icon-1899-0288D1-nodesc-highlight</styleUrl>
      </Pair>
    </StyleMap>
    <Style id="icon-1899-7CB342-nodesc-normal">
      <IconStyle>
        <color>ff42b37c</color>
        <scale>1</scale>
        <Icon>
          <href>https://www.gstatic.com/mapspro/images/stock/503-wht-blank_maps.png</href>
        </Icon>
        <hotSpot x="32" xunits="pixels" y="64" yunits="insetPixels"/>
      </IconStyle>
      <LabelStyle>
        <scale>0</scale>
      </LabelStyle>
      <BalloonStyle>
        <text><![CDATA[<h3>$[name]</h3>]]></text>
      </BalloonStyle>
    </Style>
    <Style id="icon-1899-7CB342-nodesc-highlight">
      <IconStyle>
        <color>ff42b37c</color>
        <scale>1</scale>
        <Icon>
          <href>https://www.gstatic.com/mapspro/images/stock/503-wht-blank_maps.png</href>
        </Icon>
        <hotSpot x="32" xunits="pixels" y="64" yunits="insetPixels"/>
      </IconStyle>
      <LabelStyle>
        <scale>1</scale>
      </LabelStyle>
      <BalloonStyle>
        <text><![CDATA[<h3>$[name]</h3>]]></text>
      </BalloonStyle>
    </Style>
    <StyleMap id="icon-1899-7CB342-nodesc">
      <Pair>
        <key>normal</key>
        <styleUrl>#icon-1899-7CB342-nodesc-normal</styleUrl>
      </Pair>
      <Pair>
        <key>highlight</key>
        <styleUrl>#icon-1899-7CB342-nodesc-highlight</styleUrl>
      </Pair>
    </StyleMap>
    <Style id="icon-1899-9C27B0-nodesc-normal">
      <IconStyle>
        <color>ffb0279c</color>
        <scale>1</scale>
        <Icon>
          <href>https://www.gstatic.com/mapspro/images/stock/503-wht-blank_maps.png</href>
        </Icon>
        <hotSpot x="32" xunits="pixels" y="64" yunits="insetPixels"/>
      </IconStyle>
      <LabelStyle>
        <scale>0</scale>
      </LabelStyle>
      <BalloonStyle>
        <text><![CDATA[<h3>$[name]</h3>]]></text>
      </BalloonStyle>
    </Style>
    <Style id="icon-1899-9C27B0-nodesc-highlight">
      <IconStyle>
        <color>ffb0279c</color>
        <scale>1</scale>
        <Icon>
          <href>https://www.gstatic.com/mapspro/images/stock/503-wht-blank_maps.png</href>
        </Icon>
        <hotSpot x="32" xunits="pixels" y="64" yunits="insetPixels"/>
      </IconStyle>
      <LabelStyle>
        <scale>1</scale>
      </LabelStyle>
      <BalloonStyle>
        <text><![CDATA[<h3>$[name]</h3>]]></text>
      </BalloonStyle>
    </Style>
    <StyleMap id="icon-1899-9C27B0-nodesc">
      <Pair>
        <key>normal</key>
        <styleUrl>#icon-1899-9C27B0-nodesc-normal</styleUrl>
      </Pair>
      <Pair>
        <key>highlight</key>
        <styleUrl>#icon-1899-9C27B0-nodesc-highlight</styleUrl>
      </Pair>
    </StyleMap>
    <Style id="icon-1899-FF5252-nodesc-normal">
      <IconStyle>
        <color>ff5252ff</color>
        <scale>1</scale>
        <Icon>
          <href>https://www.gstatic.com/mapspro/images/stock/503-wht-blank_maps.png</href>
        </Icon>
        <hotSpot x="32" xunits="pixels" y="64" yunits="insetPixels"/>
      </IconStyle>
      <LabelStyle>
        <scale>0</scale>
      </LabelStyle>
      <BalloonStyle>
        <text><![CDATA[<h3>$[name]</h3>]]></text>
      </BalloonStyle>
    </Style>
    <Style id="icon-1899-FF5252-nodesc-highlight">
      <IconStyle>
        <color>ff5252ff</color>
        <scale>1</scale>
        <Icon>
          <href>https://www.gstatic.com/mapspro/images/stock/503-wht-blank_maps.png</href>
        </Icon>
        <hotSpot x="32" xunits="pixels" y="64" yunits="insetPixels"/>
      </IconStyle>
      <LabelStyle>
        <scale>1</scale>
      </LabelStyle>
      <BalloonStyle>
        <text><![CDATA[<h3>$[name]</h3>]]></text>
      </BalloonStyle>
    </Style>
    <StyleMap id="icon-1899-FF5252-nodesc">
      <Pair>
        <key>normal</key>
        <styleUrl>#icon-1899-FF5252-nodesc-normal</styleUrl>
      </Pair>
      <Pair>
        <key>highlight</key>
        <styleUrl>#icon-1899-FF5252-nodesc-highlight</styleUrl>
      </Pair>
    </StyleMap>
    <Folder>
      <name>Quantum Residences</name>
      <Placemark>
        <name>Quantum Residences</name>
        <styleUrl>#icon-1502-C2185B-nodesc</styleUrl>
        <Point>
          <coordinates>
            120.9980211,14.5527891,0
          </coordinates>
        </Point>
      </Placemark>
    </Folder>
    <Folder>
      <name>Healthcare Facilities</name>
      <Placemark>
        <name>Makati Medical Center</name>
        <styleUrl>#icon-1899-9C27B0-nodesc</styleUrl>
        <Point>
          <coordinates>
            121.014828,14.5591862,0
          </coordinates>
        </Point>
      </Placemark>
      <Placemark>
        <name>Adventist Medical Center</name>
        <styleUrl>#icon-1899-9C27B0-nodesc</styleUrl>
        <Point>
          <coordinates>
            120.9952498,14.5561155,0
          </coordinates>
        </Point>
      </Placemark>
      <Placemark>
        <name>Pasay City General Hospital</name>
        <styleUrl>#icon-1899-9C27B0-nodesc</styleUrl>
        <Point>
          <coordinates>
            121.0009273,14.5492968,0
          </coordinates>
        </Point>
      </Placemark>
    </Folder>
    <Folder>
      <name>Transport Hub</name>
      <Placemark>
        <name>Lrt Gil Puyat</name>
        <styleUrl>#icon-1899-01579B-nodesc</styleUrl>
        <Point>
          <coordinates>
            120.9972465,14.5535919,0
          </coordinates>
        </Point>
      </Placemark>
      <Placemark>
        <name>Libertad Station South Entry</name>
        <styleUrl>#icon-1899-01579B-nodesc</styleUrl>
        <Point>
          <coordinates>
            120.9986078,14.5475506,0
          </coordinates>
        </Point>
      </Placemark>
      <Placemark>
        <name>Jam Liner Buendia Bus Station</name>
        <styleUrl>#icon-1899-01579B-nodesc</styleUrl>
        <Point>
          <coordinates>
            120.9967611,14.5551027,0
          </coordinates>
        </Point>
      </Placemark>
      <Placemark>
        <name>ALPS Buendia Terminal</name>
        <styleUrl>#icon-1899-01579B-nodesc</styleUrl>
        <Point>
          <coordinates>
            120.9965939,14.555617,0
          </coordinates>
        </Point>
      </Placemark>
      <Placemark>
        <name>JAC Liner Terminal- Buendia</name>
        <styleUrl>#icon-1899-01579B-nodesc</styleUrl>
        <Point>
          <coordinates>
            120.9965911,14.5542468,0
          </coordinates>
        </Point>
      </Placemark>
    </Folder>
    <Folder>
      <name>Place of Worship</name>
      <Placemark>
        <name>Pasay Central Seventh-day Adventist Church</name>
        <styleUrl>#icon-1899-0288D1-nodesc</styleUrl>
        <Point>
          <coordinates>
            120.9960637,14.5543876,0
          </coordinates>
        </Point>
      </Placemark>
      <Placemark>
        <name>Pasay First United Methodist Church</name>
        <styleUrl>#icon-1899-0288D1-nodesc</styleUrl>
        <Point>
          <coordinates>
            120.9985833,14.5504752,0
          </coordinates>
        </Point>
      </Placemark>
      <Placemark>
        <name>Sta. Clara de Montefalco Parish</name>
        <styleUrl>#icon-1899-0288D1-nodesc</styleUrl>
        <Point>
          <coordinates>
            121.001057,14.5489727,0
          </coordinates>
        </Point>
      </Placemark>
    </Folder>
    <Folder>
      <name>Mall </name>
      <Placemark>
        <name><![CDATA[Cash & Carry Mall]]></name>
        <styleUrl>#icon-1899-FF5252-nodesc</styleUrl>
        <Point>
          <coordinates>
            121.005787,14.5586644,0
          </coordinates>
        </Point>
      </Placemark>
      <Placemark>
        <name>Makati Square</name>
        <styleUrl>#icon-1899-FF5252-nodesc</styleUrl>
        <Point>
          <coordinates>
            121.0146088,14.5523286,0
          </coordinates>
        </Point>
      </Placemark>
      <Placemark>
        <name>WalterMart Makati</name>
        <styleUrl>#icon-1899-FF5252-nodesc</styleUrl>
        <Point>
          <coordinates>
            121.013095,14.5513096,0
          </coordinates>
        </Point>
      </Placemark>
    </Folder>
    <Folder>
      <name>Schools</name>
      <Placemark>
        <name>Arellano University - Jose Abad Santos Campus</name>
        <styleUrl>#icon-1899-7CB342-nodesc</styleUrl>
        <Point>
          <coordinates>
            120.9955571,14.5595325,0
          </coordinates>
        </Point>
      </Placemark>
      <Placemark>
        <name>Arellano University School of Law</name>
        <styleUrl>#icon-1899-7CB342-nodesc</styleUrl>
        <Point>
          <coordinates>
            120.9951437,14.5596691,0
          </coordinates>
        </Point>
      </Placemark>
      <Placemark>
        <name>De La Salle University Manila</name>
        <styleUrl>#icon-1899-7CB342-nodesc</styleUrl>
        <Point>
          <coordinates>
            120.9931652,14.5647642,0
          </coordinates>
        </Point>
      </Placemark>
      <Placemark>
        <name>De La Salle-College of Saint Benilde Taft Campus</name>
        <styleUrl>#icon-1899-7CB342-nodesc</styleUrl>
        <Point>
          <coordinates>
            120.9947909,14.5638473,0
          </coordinates>
        </Point>
      </Placemark>
      <Placemark>
        <name>Asian Institute of Maritime Studies</name>
        <styleUrl>#icon-1899-7CB342-nodesc</styleUrl>
        <Point>
          <coordinates>
            120.9922325,14.5461269,0
          </coordinates>
        </Point>
      </Placemark>
    </Folder>
  </Document>
</kml>
